NORAD_CAT_ID,OBJECT_NAME,OBJECT_TYPE,EPOCH,MEAN_MOTION,ECCENTRICITY,INCLINATION,RA_OF_ASC_NODE,ARG_OF_PERICENTER,MEAN_ANOMALY,BSTAR,MEAN_MOTION_DOT,MEAN_MOTION_DDOT,TLE_LINE0,TLE_LINE1,TLE_LINE2,SEMIMAJOR_AXIS,PERIOD,APOGEE,PERIGEE,DECAYED
49166.0,STARLINK-3089,PAYLOAD,2022-09-01 04:17:23,14.98334074,0.0003151999999999,69.9975,275.6695,257.9964,102.0842,-8.5274e-05,-1.11e-05,0.0,0 STARLINK-3089,1 49166U 21082AN  22244.17873974 -.00001110  00000-0 -85274-4 0  9994,2 49166  69.9975 275.6695 0003152 257.9964 102.0842 14.98334074 55118,6950.18,96.107,574.236,569.855,0.0
49166.0,STARLINK-3089,PAYLOAD,2022-09-01 10:41:55,14.98334543,0.0002901999999999,69.9982,274.9969,254.8129,105.2709,-5.3917e-05,-7.36e-06,0.0,0 STARLINK-3089,1 49166U 21082AN  22244.44577877 -.00000736  00000-0 -53917-4 0  9999,2 49166  69.9982 274.9969 0002902 254.8129 105.2709 14.98334543 55155,6950.179,96.107,574.061,570.0269999999998,0.0
49166.0,STARLINK-3089,PAYLOAD,2022-09-02 05:55:32,14.98328682,0.0003018,69.9975,272.9762,258.5254,101.5566,7.6735e-05,8.23e-06,0.0,0 STARLINK-3089,1 49166U 21082AN  22245.24689826  .00000823  00000-0  76735-4 0  9994,2 49166  69.9975 272.9762 0003018 258.5254 101.5566 14.98328682 55275,6950.196999999999,96.107,574.16,569.964,0.0
49166.0,STARLINK-3089,PAYLOAD,2022-09-02 12:20:04,14.98330049,0.0002983,69.9976,272.303,258.0453,102.0371,8.960299999999999e-05,9.76e-06,0.0,0 STARLINK-3089,1 49166U 21082AN  22245.51393759  .00000976  00000-0  89603-4 0  9998,2 49166  69.9976 272.3030 0002983 258.0453 102.0371 14.98330049 55319,6950.193,96.107,574.131,569.984,0.0
49166.0,STARLINK-3089,PAYLOAD,2022-09-02 18:44:36,14.98329835,0.0002979,69.9976,271.6296,258.3269,101.7556,6.5794e-05,6.92e-06,0.0,0 STARLINK-3089,1 49166U 21082AN  22245.78097752  .00000692  00000-0  65794-4 0  9991,2 49166  69.9976 271.6296 0002979 258.3269 101.7556 14.98329835 55354,6950.193,96.107,574.129,569.988,0.0
49166.0,STARLINK-3089,PAYLOAD,2022-09-03 05:57:32,14.98333473,0.0003006,69.9975,270.4511,258.4262,101.6559,9.4823e-05,1.039e-05,0.0,0 STARLINK-3089,1 49166U 21082AN  22246.24829517  .00001039  00000-0  94823-4 0  9996,2 49166  69.9975 270.4511 0003006 258.4262 101.6559 14.98333473 55429,6950.182,96.107,574.136,569.9580000000002,0.0
49166.0,STARLINK-3089,PAYLOAD,2022-09-03 10:45:56,14.98334097,0.0002991,69.9975,269.9462,258.3581,101.7242,9.8558e-05,1.083e-05,0.0,0 STARLINK-3089,1 49166U 21082AN  22246.44857441  .00001083  00000-0  98558-4 0  9993,2 49166  69.9975 269.9462 0002991 258.3581 101.7242 14.98334097 55458,6950.18,96.107,574.124,569.966,0.0
49166.0,STARLINK-3089,PAYLOAD,2022-09-03 20:22:44,14.98337396,0.0003,69.9975,268.9361,258.4227,101.6596,0.00010194,1.124e-05,0.0,0 STARLINK-3089,1 49166U 21082AN  22246.84913104  .00001124  00000-0  10194-3 0  9991,2 49166  69.9975 268.9361 0003000 258.4227 101.6596 14.98337396 55518,6950.17,96.107,574.12,569.95,0.0
49166.0,STARLINK-3089,PAYLOAD,2022-09-04 09:11:49,14.98337968,0.0002983,69.9975,267.5894,258.5893,101.4931,0.00010315,1.138e-05,0.0,0 STARLINK-3089,1 49166U 21082AN  22247.38320785  .00001138  00000-0  10315-3 0  9998,2 49166  69.9975 267.5894 0002983 258.5893 101.4931 14.98337968 55597,6950.168000000002,96.106,574.106,569.96,0.0
49166.0,STARLINK-3089,PAYLOAD,2022-09-04 12:24:05,14.98340698,0.0002981,69.9975,267.2526,258.309,101.7735,0.00012896,1.446e-05,0.0,0 STARLINK-3089,1 49166U 21082AN  22247.51672613  .00001446  00000-0  12896-3 0  9991,2 49166  69.9975 267.2526 0002981 258.3090 101.7735 14.98340698 55613,6950.16,96.106,574.097,569.953,0.0
49166.0,STARLINK-3089,PAYLOAD,2022-09-04 14:00:13,14.98341623,0.0003033,69.9974,267.0841,259.2281,100.8537,0.00013064,1.467e-05,0.0,0 STARLINK-3089,1 49166U 21082AN  22247.58348505  .00001467  00000-0  13064-3 0  9999,2 49166  69.9974 267.0841 0003033 259.2281 100.8537 14.98341623 55621,6950.156999999997,96.106,574.13,569.914,0.0
49166.0,STARLINK-3089,PAYLOAD,2022-09-05 04:25:26,14.98326973,0.0003101,69.9974,265.5694,257.6177,102.4635,-6.3978e-05,-8.56e-06,0.0,0 STARLINK-3089,1 49166U 21082AN  22248.18433508 -.00000856  00000-0 -63978-4 0  9997,2 49166  69.9974 265.5694 0003101 257.6177 102.4635 14.98326973 55710,6950.2019999999975,96.107,574.2230000000002,569.9119999999998,0.0
49166.0,STARLINK-3089,PAYLOAD,2022-09-05 10:49:58,14.98331592,0.0003103999999999,69.9974,264.8956,259.1998,100.8811,-1.2283e-05,-2.4e-06,0.0,0 STARLINK-3089,1 49166U 21082AN  22248.45137134 -.00000240  00000-0 -12283-4 0  9993,2 49166  69.9974 264.8956 0003104 259.1998 100.8811 14.98331592 55759,6950.188,96.107,574.21,569.896,0.0
49166.0,STARLINK-3089,PAYLOAD,2022-09-06 04:27:27,14.98332348,0.0003139,69.9972,263.0438,259.8212,100.2593,-1.412e-05,-2.62e-06,0.0,0 STARLINK-3089,1 49166U 21082AN  22249.18573022 -.00000262  00000-0 -14120-4 0  9990,2 49166  69.9972 263.0438 0003139 259.8212 100.2593 14.98332348 55860,6950.186,96.107,574.232,569.869,0.0
49166.0,STARLINK-3089,PAYLOAD,2022-09-06 10:51:59,14.98333227,0.0003026,69.9974,262.3704,257.4178,102.6642,-3.4236e-06,-1.34e-06,0.0,0 STARLINK-3089,1 49166U 21082AN  22249.45276934 -.00000134  00000-0 -34236-5 0  9991,2 49166  69.9974 262.3704 0003026 257.4178 102.6642 14.98333227 55903,6950.183000000001,96.107,574.151,569.945,0.0
49166.0,STARLINK-3089,PAYLOAD,2022-09-06 12:28:07,14.98333275,0.0003083999999999,69.9974,262.2021,259.5891,100.492,-6.2397000000000014e-06,-1.68e-06,0.0,0 STARLINK-3089,1 49166U 21082AN  22249.51952931 -.00000168  00000-0 -62397-5 0  9992,2 49166  69.9974 262.2021 0003084 259.5891 100.4920 14.98333275 55912,6950.183000000001,96.107,574.191,569.904,0.0
49166.0,STARLINK-3089,PAYLOAD,2022-09-07 09:17:52,14.98329071,0.0003074,69.9979,260.0141,258.7819,101.2995,0.00013583,1.528e-05,0.0,0 STARLINK-3089,1 49166U 21082AN  22250.38740912  .00001528  00000-0  13583-3 0  9993,2 49166  69.9979 260.0141 0003074 258.7819 101.2995 14.98329071 56041,6950.196,96.107,574.197,569.924,0.0
49166.0,STARLINK-3089,PAYLOAD,2022-09-08 07:43:44,14.98333328,0.00031,69.998,257.6569,261.6407,98.44,0.00015458,1.752e-05,0.0,0 STARLINK-3089,1 49166U 21082AN  22251.32204709  .00001752  00000-0  15458-3 0  9999,2 49166  69.9980 257.6569 0003100 261.6407  98.4400 14.98333328 56188,6950.183000000001,96.107,574.202,569.893,0.0
49166.0,STARLINK-3089,PAYLOAD,2022-09-08 17:20:32,14.9833638,0.0003119,69.9981,256.6468,261.0452,99.0354,0.00017405,1.985e-05,0.0,0 STARLINK-3089,1 49166U 21082AN  22251.72260403  .00001985  00000-0  17405-3 0  9998,2 49166  69.9981 256.6468 0003119 261.0452  99.0354 14.98336380 56243,6950.1730000000025,96.107,574.206,569.87,0.0
49166.0,STARLINK-3089,PAYLOAD,2022-09-09 10:58:01,14.98339482,0.000277,70.0,254.7955,251.6838,108.402,0.00020797,2.39e-05,0.0,0 STARLINK-3089,1 49166U 21082AN  22252.45695956  .00002390  00000-0  20797-3 0  9993,2 49166  70.0000 254.7955 0002770 251.6838 108.4020 14.98339482 56356,6950.1640000000025,96.106,573.9540000000002,570.1030000000002,0.0
49166.0,STARLINK-3089,PAYLOAD,2022-09-09 12:34:09,14.98335197,0.00028,69.9998,254.6272,253.5799,106.5052,0.0001505,1.703e-05,0.0,0 STARLINK-3089,1 49166U 21082AN  22252.52372300  .00001703  00000-0  15050-3 0  9999,2 49166  69.9998 254.6272 0002800 253.5799 106.5052 14.98335197 56365,6950.177,96.107,573.988,570.096,0.0
49166.0,STARLINK-3089,PAYLOAD,2022-09-10 04:35:30,14.9832866,0.0003125,70.0001,252.9434,259.752,100.3287,-0.00010532,-1.349e-05,0.0,0 STARLINK-3089,1 49166U 21082AN  22253.19133017 -.00001349  00000-0 -10532-3 0  9991,2 49166  70.0001 252.9434 0003125 259.7520 100.3287 14.98328660 56465,6950.196999999999,96.107,574.234,569.89,0.0
49166.0,STARLINK-3089,PAYLOAD,2022-09-10 09:23:55,14.98325423,0.0002658,70.0003,252.4388,240.4161,119.6733,-2.3865e-05,-3.78e-06,0.0,0 STARLINK-3089,1 49166U 21082AN  22253.39161013 -.00000378  00000-0 -23865-4 0  9995,2 49166  70.0003 252.4388 0002658 240.4161 119.6733 14.98325423 56494,6950.206999999999,96.107,573.919,570.225,0.0
49166.0,STARLINK-3089,PAYLOAD,2022-09-11 04:37:31,14.98329996,0.0003153999999999,70.0003,250.4195,261.2536,98.8266,-3.231e-05,-4.79e-06,0.0,0 STARLINK-3089,1 49166U 21082AN  22254.19272840 -.00000479  00000-0 -32310-4 0  9992,2 49166  70.0003 250.4195 0003154 261.2536  98.8266 14.98329996 56619,6950.193,96.107,574.25,569.866,0.0
49166.0,STARLINK-3089,PAYLOAD,2022-09-11 09:25:55,14.98331365,0.0003117,70.0002,249.9144,260.2894,99.7913,-1.8724e-05,-3.16e-06,0.0,0 STARLINK-3089,1 49166U 21082AN  22254.39300738 -.00000316  00000-0 -18724-4 0  9995,2 49166  70.0002 249.9144 0003117 260.2894  99.7913 14.98331365 56645,6950.189,96.107,574.22,569.887,0.0
49166.0,STARLINK-3089,PAYLOAD,2022-09-12 09:27:56,14.98328363,0.0002889,70.0007,247.3898,256.1104,103.9733,0.00016317,1.854e-05,0.0,0 STARLINK-3089,1 49166U 21082AN  22255.39440896  .00001854  00000-0  16317-3 0  9997,2 49166  70.0007 247.3898 0002889 256.1104 103.9733 14.98328363 56799,6950.198,96.107,574.071,570.055,0.0
49166.0,STARLINK-3089,PAYLOAD,2022-09-13 09:29:57,14.98334538,0.0003153,70.0005,244.8652,261.4865,98.5937,0.0002573,2.979e-05,0.0,0 STARLINK-3089,1 49166U 21082AN  22256.39580370  .00002979  00000-0  25730-3 0  9998,2 49166  70.0005 244.8652 0003153 261.4865  98.5937 14.98334538 56948,6950.179,96.107,574.235,569.852,0.0
49166.0,STARLINK-3089,PAYLOAD,2022-09-14 04:43:33,14.98364535,0.0002831,70.0005,242.8446,253.4943,106.5905,-0.00049801,-6.035e-05,0.0,0 STARLINK-3089,1 49166U 21082AN  22257.19691535 -.00006035  00000-0 -49801-3 0  9997,2 49166  70.0005 242.8446 0002831 253.4943 106.5905 14.98364535 57066,6950.0859999999975,96.105,573.919,569.984,0.0
49166.0,STARLINK-3089,PAYLOAD,2022-09-14 09:31:57,14.98355099,0.0002996999999999,70.0006,242.33900000000003,260.3393,99.7428,-0.00045758,-5.552e-05,0.0,0 STARLINK-3089,1 49166U 21082AN  22257.39719875 -.00005552  00000-0 -45758-3 0  9997,2 49166  70.0006 242.3390 0002997 260.3393  99.7428 14.98355099 57090,6950.115,96.105,574.063,569.8969999999998,0.0
